ORBCOMM FM103           
1 40091U 14040F   25111.58768958  .00001506  00000+0  36060-3 0  9998
2 40091  47.0058 285.0846 0001446   3.9727 356.1169 14.58066609555849
ORBCOMM FM114           
1 41179U 15081A   25111.61091215  .00001223  00000+0  29949-3 0  9995
2 41179  47.0017 194.0529 0001059 100.9364 259.1641 14.58123960496210
ORBCOMM FM119           
1 41180U 15081B   25111.32216826  .00001238  00000+0  30324-3 0  9997
2 41180  46.9990 104.7085 0000864 212.0813 148.0020 14.58036928497420
ORBCOMM FM105           
1 41181U 15081C   25111.32365822  .00000578  00000+0  20820-3 0  9995
2 41181  47.0000 104.1332 0001060  33.8038 326.2910 14.45164286492520
ORBCOMM FM110           
1 41182U 15081D   25111.51967155  .00001835  00000+0  43220-3 0  9990
2 41182  47.0003 193.8676 0002922 263.5553  96.4999 14.57991120496257
ORBCOMM FM112           
1 41184U 15081F   25111.02478360  .00001135  00000+0  28120-3 0  9998
2 41184  46.9977 105.2756 0000327  86.7665 273.3258 14.57987639497322
ORBCOMM FM113           
1 41185U 15081G   25111.27560312  .00001578  00000+0  37648-3 0  9991
2 41185  46.9993 104.4063 0000312 185.0722 175.0160 14.58031288497347
